[{"OBJECT_NAME":"STARLINK-2171","OBJECT_ID":"2021-017AJ","EPOCH":"2026-03-10T00:00:02.999808","MEAN_MOTION":15.70905931,"ECCENTRICITY":0.0002371,"INCLINATION":53.0436,"RA_OF_ASC_NODE":167.0252,"ARG_OF_PERICENTER":165.5816,"MEAN_ANOMALY":179.0332,"EPHEMERIS_TYPE":0,"CLASSIFICATION_TYPE":"U","NORAD_CAT_ID":47754,"ELEMENT_SET_NO":999,"REV_AT_EPOCH":590,"BSTAR":0.00011207161,"MEAN_MOTION_DOT":0.00013697,"MEAN_MOTION_DDOT":0},{"OBJECT_NAME":"STARLINK-11127 [DTC]","OBJECT_ID":"2024-118G","EPOCH":"2026-03-09T16:33:03.510144","MEAN_MOTION":15.69714646,"ECCENTRICITY":0.00010183,"INCLINATION":53.1595,"RA_OF_ASC_NODE":221.2371,"ARG_OF_PERICENTER":90.5221,"MEAN_ANOMALY":269.5914,"EPHEMERIS_TYPE":0,"CLASSIFICATION_TYPE":"U","NORAD_CAT_ID":60119,"ELEMENT_SET_NO":999,"REV_AT_EPOCH":9799,"BSTAR":1.958768e-6,"MEAN_MOTION_DOT":-3.51e-6,"MEAN_MOTION_DDOT":0}]
